FLOCK 4G-5              
1 62663U 25009BG  26068.45638436  .00011278  00000+0  40688-3 0  9997
2 62663  97.4058 151.2478 0002094 314.5072  45.5996 15.28679529 63699
STARLINK-35281          
1 65824U 25221B   26068.33418962  .00003605  00000+0  13386-3 0  9992
2 65824  53.1588  90.3744 0001190  83.0260 277.0877 15.30181040 26025
